CARTOSAT-2F             
1 43111U 18004A   20197.45000013  .00000128  00000-0  92056-5 0  9993
2 43111  97.3832 256.5062 0003848 338.5041 116.1649 15.19279513138965
PSLV DEB                
1 43112U 18004B   20196.47220986  .00001823  00000-0  73792-4 0  9996
2 43112  97.4511 268.4691 0008143 300.3364  59.7068 15.25966662139210
LEO VANTAGE 1           
1 43113U 18004C   20197.12977144 -.00000045  00000-0 -23365-5 0  9994
2 43113  99.3726 252.7435 0005328   4.4278 355.6915 13.69842165125952
ICEYE-X1                
1 43114U 18004D   20197.16833820  .00000610  00000-0  28612-4 0  9996
2 43114  97.4436 267.0926 0008553 311.0990  48.9507 15.23420372139212
CARBONITE 2             
1 43115U 18004E   20197.44164796  .00000265  00000-0  14407-4 0  9990
2 43115  97.4421 266.8190 0008806 313.4716  46.5788 15.22648700139233
INS-1C                  
1 43116U 18004F   20197.46571651  .00000729  00000-0  33129-4 0  9992
2 43116  97.4511 268.6674 0008083 314.7384  45.3194 15.23921298139306
CORVUS BC3              
1 43118U 18004H   20197.14608931  .00000507  00000-0  24295-4 0  9999
2 43118  97.4426 267.1918 0009165 323.0476  37.0128 15.23400663139218
FLOCK 3P'-3             
1 43119U 18004J   20197.14867652  .00000570  00000-0  26929-4 0  9993
2 43119  97.4495 267.6522 0008920 323.7245  36.3386 15.23423049139211
FLOCK 3P'-2             
1 43120U 18004K   20196.87102887  .00000481  00000-0  23319-4 0  9997
2 43120  97.4500 267.2789 0008927 325.1775  34.8876 15.23233071139167
FLOCK 3P'-1             
1 43121U 18004L   20196.47112312  .00001327  00000-0  56505-4 0  9991
2 43121  97.4498 267.6247 0008543 323.9735  36.0926 15.24735290139085
FLOCK 3P'-4             
1 43122U 18004M   20196.86972159  .00000467  00000-0  22737-4 0  9992
2 43122  97.4508 267.3356 0008816 327.4648  32.6044 15.23234985139167
LEMUR-2-MCCAFFERTY      
1 43123U 18004N   20197.23361966  .00001165  00000-0  48952-4 0  9996
2 43123  97.4481 269.2226 0008223 320.2075  39.8559 15.25437084139327
LEMUR-2-PETERWEBSTER    
1 43124U 18004P   20196.83344431  .00001094  00000-0  46244-4 0  9993
2 43124  97.4483 268.7078 0008279 320.3747  39.6885 15.25359053139269
LEMUR-2-BROWNCOW        
1 43125U 18004Q   20196.95733729  .00001414  00000-0  58193-4 0  9991
2 43125  97.4494 269.1631 0008031 320.8106  39.2550 15.25796941139303
LEMUR-2-DAVEWILSON      
1 43126U 18004R   20196.94303336  .00001415  00000-0  58439-4 0  9992
2 43126  97.4494 269.0402 0008006 321.0227  39.0434 15.25672989139290
DEMOSAT 2               
1 43127U 18004S   20196.86823712  .00000558  00000-0  26221-4 0  9990
2 43127  97.4438 267.3260 0008603 326.4193  33.6498 15.23660891139192
MICROSAT-TD             
1 43128U 18004T   20197.36457470  .00031439  00000-0  14560-3 0  9995
2 43128  96.7483 249.3749 0007458  67.2100 292.9958 15.83380297143801
ARKYD 6A                
1 43130U 18004V   20197.44332136  .00000661  00000-0  30270-4 0  9998
2 43130  97.4453 268.1969 0008542 324.0646  36.0016 15.23956354139293
MICROMAS-2A             
1 43131U 18004W   20196.47897702  .00001191  00000-0  50094-4 0  9991
2 43131  97.4476 268.3582 0007934 324.9406  35.1308 15.25361214139212
PICSAT                  
1 43132U 18004X   20197.47386078  .00000846  00000-0  37375-4 0  9995
2 43132  97.4460 268.6425 0008347 323.4521  36.6146 15.24472417139321
CNUSAIL-1               
1 43133U 18004Y   20197.45656634  .00000567  00000-0  26462-4 0  9997
2 43133  97.4446 268.1313 0008433 324.7411  35.3267 15.23862237139282
OBJECT Z                
1 43134U 18004Z   20197.45637308  .00000710  00000-0  32017-4 0  9998
2 43134  97.4456 268.4966 0008223 324.6147  35.4544 15.24252075139309
OBJECT AA               
1 43135U 18004AA  20197.16780211  .00000947  00000-0  41106-4 0  9990
2 43135  97.4465 268.6019 0008162 325.3156  34.7548 15.24774203139297
OBJECT AB               
1 43136U 18004AB  20197.46402076  .00001100  00000-0  46848-4 0  9994
2 43136  97.4478 269.1884 0007884 323.9178  36.1527 15.25082329139347
FOX-1D (AO-92)          
1 43137U 18004AC  20196.92688210  .00000653  00000-0  29767-4 0  9994
2 43137  97.4445 267.9010 0008090 328.4680  31.6072 15.24165966139227
STEP CUBE LAB           
1 43138U 18004AD  20197.46028884  .00001064  00000-0  45272-4 0  9996
2 43138  97.4474 269.3294 0007683 325.1409  34.9325 15.25187585139364
SPACEBEE-4              
1 43139U 18004AE  20196.94855626  .00001807  00000-0  71633-4 0  9996
2 43139  97.4512 270.0742 0007222 324.3566  35.7189 15.26686369139349
SPACEBEE-3              
1 43140U 18004AF  20197.33510240  .00002402  00000-0  91755-4 0  9991
2 43140  97.4529 271.1905 0006731 320.7161  39.3589 15.27612399139456
SPACEBEE-2              
1 43141U 18004AG  20197.24354017  .00002600  00000-0  98150-4 0  9996
2 43141  97.4542 271.3756 0006669 319.9663  40.1083 15.27926090139450
SPACEBEE-1              
1 43142U 18004AH  20196.94283828  .00002878  00000-0  10716-3 0  9992
2 43142  97.4546 271.3518 0006639 320.8917  39.1842 15.28291047139416
CICERO 7                
1 43143U 18004AJ  20196.47950075  .00001205  00000-0  50605-4 0  9991
2 43143  97.4455 268.5351 0006487 338.0508  22.0451 15.25393610139230
TYVAK-61C               
1 43144U 18004AK  20196.63853291  .00001214  00000-0  50159-4 0  9996
2 43144  97.4489 269.4295 0007048 341.3190  18.7788 15.25921019139294
